CELTEE 1                
1 41850U 16067C   26068.55062269  .00007714  00000+0  37656-3 0  9993
2 41850  98.0813 288.3139 0000948 135.7027 224.4281 15.18591912510752
TRANSPORTER-15 OBJECT CD
1 66741U 25276CD  26065.85989399  .00017530  00000+0  84273-3 0  9997
2 66741  97.4316 141.2013 0005308   3.5398 356.5873 15.18860021 12183
